{
  "type": "FeatureCollection",
  "metadata": {
    "title": "Cơ Sở Dữ Liệu Tọa Độ WGS84 Du Lịch Tri Tôn",
    "version": "10.7.0",
    "total_records": 95
  },
  "features": [
    {
      "type": "Feature",
      "geometry": {
        "type": "Point",
        "coordinates": [
          105.018,
          10.415
        ]
      },
      "properties": {
        "id": "CF001",
        "name": "Ruộng Coffee & Homestay Tri Tôn",
        "category": "Quán Cà Phê & Homestay",
        "commune": "Xã Núi Tô",
        "rating": 4.6,
        "review_count": 860
      }
    },
    {
      "type": "Feature",
      "geometry": {
        "type": "Point",
        "coordinates": [
          105.0195,
          10.417
        ]
      },
      "properties": {
        "id": "CF002",
        "name": "Windy Hill Coffee & Homestay Tri Tôn",
        "category": "Quán Cà Phê & Homestay",
        "commune": "Xã Núi Tô",
        "rating": 4.7,
        "review_count": 720
      }
    },
    {
      "type": "Feature",
      "geometry": {
        "type": "Point",
        "coordinates": [
          105.0068,
          10.4128
        ]
      },
      "properties": {
        "id": "CF003",
        "name": "CHẠM Coffee & Tea Tri Tôn",
        "category": "Quán Cà Phê",
        "commune": "Thị trấn Tri Tôn",
        "rating": 4.6,
        "review_count": 510
      }
    },
    {
      "type": "Feature",
      "geometry": {
        "type": "Point",
        "coordinates": [
          105.0075,
          10.4125
        ]
      },
      "properties": {
        "id": "CF004",
        "name": "Anpalm Cafe Tri Tôn",
        "category": "Quán Cà Phê",
        "commune": "Thị trấn Tri Tôn",
        "rating": 4.5,
        "review_count": 520
      }
    },
    {
      "type": "Feature",
      "geometry": {
        "type": "Point",
        "coordinates": [
          105.005,
          10.411
        ]
      },
      "properties": {
        "id": "CF005",
        "name": "Tiệm Cà Phê Nhà Quê",
        "category": "Quán Cà Phê",
        "commune": "Thị trấn Tri Tôn",
        "rating": 4.5,
        "review_count": 640
      }
    },
    {
      "type": "Feature",
      "geometry": {
        "type": "Point",
        "coordinates": [
          105.023,
          10.406
        ]
      },
      "properties": {
        "id": "CF006",
        "name": "An Sơn Trà Quán",
        "category": "Quán Cà Phê",
        "commune": "Thị trấn Tri Tôn",
        "rating": 4.6,
        "review_count": 410
      }
    },
    {
      "type": "Feature",
      "geometry": {
        "type": "Point",
        "coordinates": [
          105.006,
          10.414
        ]
      },
      "properties": {
        "id": "CF007",
        "name": "NY Coffee & Tea Tri Tôn",
        "category": "Quán Cà Phê",
        "commune": "Thị trấn Tri Tôn",
        "rating": 4.4,
        "review_count": 380
      }
    },
    {
      "type": "Feature",
      "geometry": {
        "type": "Point",
        "coordinates": [
          105.0185,
          10.4165
        ]
      },
      "properties": {
        "id": "CF008",
        "name": "Mây Coffee & Tea Hồ Soài Chék",
        "category": "Quán Cà Phê",
        "commune": "Xã Núi Tô",
        "rating": 4.5,
        "review_count": 340
      }
    },
    {
      "type": "Feature",
      "geometry": {
        "type": "Point",
        "coordinates": [
          105.007,
          10.413
        ]
      },
      "properties": {
        "id": "CF009",
        "name": "Quy Coffee House Tri Tôn",
        "category": "Quán Cà Phê",
        "commune": "Thị trấn Tri Tôn",
        "rating": 4.5,
        "review_count": 490
      }
    },
    {
      "type": "Feature",
      "geometry": {
        "type": "Point",
        "coordinates": [
          105.0245,
          10.4065
        ]
      },
      "properties": {
        "id": "CF010",
        "name": "Quán Cà Phê Mùa Gió Lên Hồ Soài So",
        "category": "Quán Cà Phê",
        "commune": "Thị trấn Tri Tôn",
        "rating": 4.5,
        "review_count": 310
      }
    },
    {
      "type": "Feature",
      "geometry": {
        "type": "Point",
        "coordinates": [
          105.008,
          10.412
        ]
      },
      "properties": {
        "id": "CF011",
        "name": "Lang Lang Coffee & Tea",
        "category": "Quán Cà Phê",
        "commune": "Thị trấn Tri Tôn",
        "rating": 4.4,
        "review_count": 270
      }
    },
    {
      "type": "Feature",
      "geometry": {
        "type": "Point",
        "coordinates": [
          105.0095,
          10.411
        ]
      },
      "properties": {
        "id": "CF012",
        "name": "Tuyết Anh Homestay & Coffee",
        "category": "Homestay",
        "commune": "Thị trấn Tri Tôn",
        "rating": 4.6,
        "review_count": 390
      }
    },
    {
      "type": "Feature",
      "geometry": {
        "type": "Point",
        "coordinates": [
          105.01,
          10.41
        ]
      },
      "properties": {
        "id": "CF013",
        "name": "Rồng Vàng Resort Tri Tôn",
        "category": "Resort",
        "commune": "Thị trấn Tri Tôn",
        "rating": 4.5,
        "review_count": 620
      }
    },
    {
      "type": "Feature",
      "geometry": {
        "type": "Point",
        "coordinates": [
          105.012,
          10.385
        ]
      },
      "properties": {
        "id": "CF014",
        "name": "Cà Phê Suối Tri Tôn View Núi Cô Tô",
        "category": "Cà phê & Lưu trú",
        "commune": "Xã Núi Tô",
        "rating": 4.6,
        "review_count": 360
      }
    },
    {
      "type": "Feature",
      "geometry": {
        "type": "Point",
        "coordinates": [
          104.962,
          10.478
        ]
      },
      "properties": {
        "id": "CF015",
        "name": "Quán Cà Phê & Điểm Check-in Bờ Hồ Ô Tà Lọt",
        "category": "Cà phê & Lưu trú",
        "commune": "Xã An Hảo",
        "rating": 4.5,
        "review_count": 290
      }
    },
    {
      "type": "Feature",
      "geometry": {
        "type": "Point",
        "coordinates": [
          105.018,
          10.411
        ]
      },
      "properties": {
        "id": "CF016",
        "name": "Soài Chek Homestay & Coffee",
        "category": "Cà phê & Lưu trú",
        "commune": "Xã Núi Tô",
        "rating": 4.7,
        "review_count": 450
      }
    },
    {
      "type": "Feature",
      "geometry": {
        "type": "Point",
        "coordinates": [
          105.008,
          10.415
        ]
      },
      "properties": {
        "id": "CF017",
        "name": "Nhà Nghi & Khách Sạn Triệu Gia Tri Tôn",
        "category": "Cà phê & Lưu trú",
        "commune": "Thị trấn Tri Tôn",
        "rating": 4.4,
        "review_count": 310
      }
    },
    {
      "type": "Feature",
      "geometry": {
        "type": "Point",
        "coordinates": [
          105.012,
          10.419
        ]
      },
      "properties": {
        "id": "CK001",
        "name": "Con Đường Tuyến Tránh Tri Tôn (ĐT941 - ĐT948)",
        "category": "Cung đường ngắm núi Cô Tô chill nhất An Giang",
        "commune": "Thị trấn Tri Tôn",
        "rating": 4.9,
        "review_count": 2100
      }
    },
    {
      "type": "Feature",
      "geometry": {
        "type": "Point",
        "coordinates": [
          105.0095,
          10.4185
        ]
      },
      "properties": {
        "id": "CK002",
        "name": "Con Đường Tơ Lụa Tà Pạ",
        "category": "Con đường tơ lụa",
        "commune": "Xã Núi Tô",
        "rating": 4.8,
        "review_count": 1280
      }
    },
    {
      "type": "Feature",
      "geometry": {
        "type": "Point",
        "coordinates": [
          105.0188,
          10.4162
        ]
      },
      "properties": {
        "id": "CK003",
        "name": "Con Đường Tơ Lụa Soài Chék",
        "category": "Con đường tơ lụa",
        "commune": "Xã Núi Tô",
        "rating": 4.7,
        "review_count": 890
      }
    },
    {
      "type": "Feature",
      "geometry": {
        "type": "Point",
        "coordinates": [
          105.0015,
          10.4355
        ]
      },
      "properties": {
        "id": "CK004",
        "name": "Con Đường Vòm Còng Châu Lăng",
        "category": "Con đường nhiếp ảnh",
        "commune": "Xã Châu Lăng",
        "rating": 4.7,
        "review_count": 940
      }
    },
    {
      "type": "Feature",
      "geometry": {
        "type": "Point",
        "coordinates": [
          104.995,
          10.38
        ]
      },
      "properties": {
        "id": "CK005",
        "name": "Con Đường Thốt Nốt Ô Lâm - Cô Tô",
        "category": "Con đường nhiếp ảnh",
        "commune": "Xã Ô Lâm",
        "rating": 4.6,
        "review_count": 720
      }
    },
    {
      "type": "Feature",
      "geometry": {
        "type": "Point",
        "coordinates": [
          104.9525,
          10.4565
        ]
      },
      "properties": {
        "id": "CK006",
        "name": "Con Đường Tre Tầm Vông Ô Tà Sóc",
        "category": "Con đường nhiếp ảnh",
        "commune": "Xã Lương Phi",
        "rating": 4.7,
        "review_count": 610
      }
    },
    {
      "type": "Feature",
      "geometry": {
        "type": "Point",
        "coordinates": [
          104.945,
          10.458
        ]
      },
      "properties": {
        "id": "CK007",
        "name": "Cung Đường Ven Vách Đá Núi Dài (Lương Phi)",
        "category": "Cung đường phượt ngắm núi",
        "commune": "Xã Lương Phi",
        "rating": 4.7,
        "review_count": 540
      }
    },
    {
      "type": "Feature",
      "geometry": {
        "type": "Point",
        "coordinates": [
          104.901,
          10.498
        ]
      },
      "properties": {
        "id": "CK008",
        "name": "Cung Đường Biên Giới Kênh Vĩnh Tế (Ba Chúc)",
        "category": "Cung đường biên giới",
        "commune": "Thị trấn Ba Chúc",
        "rating": 4.7,
        "review_count": 680
      }
    },
    {
      "type": "Feature",
      "geometry": {
        "type": "Point",
        "coordinates": [
          104.985,
          10.3895
        ]
      },
      "properties": {
        "id": "CK009",
        "name": "Hàng Thốt Nốt Trái Tim An Tức",
        "category": "Check-in",
        "commune": "Xã An Tức",
        "rating": 4.7,
        "review_count": 3450
      }
    },
    {
      "type": "Feature",
      "geometry": {
        "type": "Point",
        "coordinates": [
          105.002,
          10.441
        ]
      },
      "properties": {
        "id": "CK010",
        "name": "Cổng Trời Tri Tôn Vòm Khmer",
        "category": "Check-in",
        "commune": "Xã Châu Lăng",
        "rating": 4.8,
        "review_count": 3770
      }
    },
    {
      "type": "Feature",
      "geometry": {
        "type": "Point",
        "coordinates": [
          105.0035,
          10.439
        ]
      },
      "properties": {
        "id": "CK011",
        "name": "Cây Thốt Nốt Cô Độc Châu Lăng",
        "category": "Điểm check-in độc đáo",
        "commune": "Xã Châu Lăng",
        "rating": 4.6,
        "review_count": 540
      }
    },
    {
      "type": "Feature",
      "geometry": {
        "type": "Point",
        "coordinates": [
          104.992,
          10.378
        ]
      },
      "properties": {
        "id": "CK012",
        "name": "Cầu Gỗ Mộc Mạc Hồ Ô Thum",
        "category": "Điểm check-in sống ảo",
        "commune": "Xã Ô Lâm",
        "rating": 4.6,
        "review_count": 890
      }
    },
    {
      "type": "Feature",
      "geometry": {
        "type": "Point",
        "coordinates": [
          105.0182,
          10.4152
        ]
      },
      "properties": {
        "id": "CK013",
        "name": "Cầu Gỗ Giữa Đồng Lúa Ruộng Coffee",
        "category": "Điểm check-in sống ảo",
        "commune": "Xã Núi Tô",
        "rating": 4.7,
        "review_count": 780
      }
    },
    {
      "type": "Feature",
      "geometry": {
        "type": "Point",
        "coordinates": [
          105.0165,
          10.4015
        ]
      },
      "properties": {
        "id": "CK014",
        "name": "Đá Vồ Hội Đổ (Mỏm Đá Sống Ảo)",
        "category": "Tọa độ săn ảnh đỉnh núi",
        "commune": "Xã Núi Tô",
        "rating": 4.8,
        "review_count": 920
      }
    },
    {
      "type": "Feature",
      "geometry": {
        "type": "Point",
        "coordinates": [
          105.0252,
          10.4052
        ]
      },
      "properties": {
        "id": "CK015",
        "name": "Cầu Cây Dã Ngoại Hồ Soài So",
        "category": "Điểm check-in ven hồ",
        "commune": "Thị trấn Tri Tôn",
        "rating": 4.5,
        "review_count": 410
      }
    },
    {
      "type": "Feature",
      "geometry": {
        "type": "Point",
        "coordinates": [
          104.9926,
          10.3776
        ]
      },
      "properties": {
        "id": "CK016",
        "name": "Nấc Thang Thiên Đường Kiều Tiên Ô Thum",
        "category": "Tiểu cảnh check-in",
        "commune": "Xã Ô Lâm",
        "rating": 4.5,
        "review_count": 460
      }
    },
    {
      "type": "Feature",
      "geometry": {
        "type": "Point",
        "coordinates": [
          105.0052,
          10.4112
        ]
      },
      "properties": {
        "id": "CK017",
        "name": "Căn Nhà Gỗ Vintage Nhà Quê",
        "category": "Góc chụp Đà Lạt",
        "commune": "Thị trấn Tri Tôn",
        "rating": 4.6,
        "review_count": 520
      }
    },
    {
      "type": "Feature",
      "geometry": {
        "type": "Point",
        "coordinates": [
          104.986,
          10.388
        ]
      },
      "properties": {
        "id": "CK018",
        "name": "Cầu Khỉ Giữa Cánh Đồng Thốt Nốt",
        "category": "Điểm check-in mộc mạc",
        "commune": "Xã An Tức",
        "rating": 4.6,
        "review_count": 380
      }
    },
    {
      "type": "Feature",
      "geometry": {
        "type": "Point",
        "coordinates": [
          104.9851,
          10.3896
        ]
      },
      "properties": {
        "id": "CK019",
        "name": "Quầy Thốt Nốt Tươi Cụm Trái Tim",
        "category": "Góc giải khát chill",
        "commune": "Xã An Tức",
        "rating": 4.7,
        "review_count": 640
      }
    },
    {
      "type": "Feature",
      "geometry": {
        "type": "Point",
        "coordinates": [
          105.0232,
          10.4062
        ]
      },
      "properties": {
        "id": "CK020",
        "name": "Biển Hiệu Ở Đây Không Có Gì Ngoài Ký Ức",
        "category": "Góc ảnh Việt phục cổ trang",
        "commune": "Thị trấn Tri Tôn",
        "rating": 4.7,
        "review_count": 420
      }
    },
    {
      "type": "Feature",
      "geometry": {
        "type": "Point",
        "coordinates": [
          105.008,
          10.412
        ]
      },
      "properties": {
        "id": "EV001",
        "name": "Lễ Hội Đua Bò Bảy Núi Tri Tôn",
        "category": "Lễ hội Khmer",
        "commune": "Thị trấn Tri Tôn",
        "rating": 4.9,
        "review_count": 2500
      }
    },
    {
      "type": "Feature",
      "geometry": {
        "type": "Point",
        "coordinates": [
          105.0088,
          10.4132
        ]
      },
      "properties": {
        "id": "EV002",
        "name": "Nghệ Thuật Viết Kinh Lá Buông Chùa Xà Tón",
        "category": "Di sản Quốc gia",
        "commune": "Thị trấn Tri Tôn",
        "rating": 4.8,
        "review_count": 980
      }
    },
    {
      "type": "Feature",
      "geometry": {
        "type": "Point",
        "coordinates": [
          104.9915,
          10.3785
        ]
      },
      "properties": {
        "id": "FD001",
        "name": "Quán Siêu Gà Đốt Ô Thum (Chau Siêu)",
        "category": "Gà Đốt Ô Thum",
        "commune": "Xã Ô Lâm",
        "rating": 4.6,
        "review_count": 1450
      }
    },
    {
      "type": "Feature",
      "geometry": {
        "type": "Point",
        "coordinates": [
          104.9925,
          10.3775
        ]
      },
      "properties": {
        "id": "FD002",
        "name": "Quán Kiều Tiên Gà Đốt Ô Thum",
        "category": "Gà Đốt Ô Thum",
        "commune": "Xã Ô Lâm",
        "rating": 4.5,
        "review_count": 920
      }
    },
    {
      "type": "Feature",
      "geometry": {
        "type": "Point",
        "coordinates": [
          104.993,
          10.379
        ]
      },
      "properties": {
        "id": "FD003",
        "name": "Gà Đốt Ô Thum Kim Suổl",
        "category": "Gà Đốt Ô Thum",
        "commune": "Xã Ô Lâm",
        "rating": 4.5,
        "review_count": 780
      }
    },
    {
      "type": "Feature",
      "geometry": {
        "type": "Point",
        "coordinates": [
          104.991,
          10.378
        ]
      },
      "properties": {
        "id": "FD004",
        "name": "Gà Đốt Ô Thum Thảo Nguyên",
        "category": "Gà Đốt Ô Thum",
        "commune": "Xã Ô Lâm",
        "rating": 4.5,
        "review_count": 810
      }
    },
    {
      "type": "Feature",
      "geometry": {
        "type": "Point",
        "coordinates": [
          104.992,
          10.377
        ]
      },
      "properties": {
        "id": "FD005",
        "name": "Gà Đốt Vương Ngọc Ô Thum",
        "category": "Gà Đốt Ô Thum",
        "commune": "Xã Ô Lâm",
        "rating": 4.4,
        "review_count": 450
      }
    },
    {
      "type": "Feature",
      "geometry": {
        "type": "Point",
        "coordinates": [
          105.003,
          10.438
        ]
      },
      "properties": {
        "id": "FD006",
        "name": "Quán Đu Đủ Đâm RiNa Khmer",
        "category": "Đặc sản Khmer",
        "commune": "Xã Châu Lăng",
        "rating": 4.8,
        "review_count": 1680
      }
    },
    {
      "type": "Feature",
      "geometry": {
        "type": "Point",
        "coordinates": [
          105.0035,
          10.4385
        ]
      },
      "properties": {
        "id": "FD007",
        "name": "Quán Đu Đủ Đâm Ly Ly",
        "category": "Đặc sản Khmer",
        "commune": "Xã Châu Lăng",
        "rating": 4.6,
        "review_count": 720
      }
    },
    {
      "type": "Feature",
      "geometry": {
        "type": "Point",
        "coordinates": [
          105.0025,
          10.4375
        ]
      },
      "properties": {
        "id": "FD008",
        "name": "Quán Đu Đủ Đâm Ty Tri Tôn",
        "category": "Đặc sản Khmer",
        "commune": "Xã Châu Lăng",
        "rating": 4.5,
        "review_count": 510
      }
    },
    {
      "type": "Feature",
      "geometry": {
        "type": "Point",
        "coordinates": [
          105.007,
          10.413
        ]
      },
      "properties": {
        "id": "FD009",
        "name": "Quán Bún Nước Lèo Sơ Nương Khmer",
        "category": "Bún nước lèo",
        "commune": "Thị trấn Tri Tôn",
        "rating": 4.7,
        "review_count": 890
      }
    },
    {
      "type": "Feature",
      "geometry": {
        "type": "Point",
        "coordinates": [
          105.0065,
          10.4125
        ]
      },
      "properties": {
        "id": "FD010",
        "name": "Quán Bún Nước Lèo Dook Tri Tôn",
        "category": "Bún nước lèo",
        "commune": "Thị trấn Tri Tôn",
        "rating": 4.5,
        "review_count": 410
      }
    },
    {
      "type": "Feature",
      "geometry": {
        "type": "Point",
        "coordinates": [
          105.004,
          10.436
        ]
      },
      "properties": {
        "id": "FD011",
        "name": "Lò Bánh Bò Thốt Nốt Nướng Út Cột",
        "category": "Đặc sản mua quà",
        "commune": "Xã Châu Lăng",
        "rating": 4.8,
        "review_count": 1150
      }
    },
    {
      "type": "Feature",
      "geometry": {
        "type": "Point",
        "coordinates": [
          105.0045,
          10.4365
        ]
      },
      "properties": {
        "id": "FD012",
        "name": "Lò Bánh Bò Thốt Nốt Út Dứt",
        "category": "Đặc sản mua quà",
        "commune": "Xã Châu Lăng",
        "rating": 4.6,
        "review_count": 580
      }
    },
    {
      "type": "Feature",
      "geometry": {
        "type": "Point",
        "coordinates": [
          105.0072,
          10.4135
        ]
      },
      "properties": {
        "id": "FD013",
        "name": "Quán Bánh Canh Lò Rèn (>30 năm)",
        "category": "Bánh canh",
        "commune": "Thị trấn Tri Tôn",
        "rating": 4.7,
        "review_count": 890
      }
    },
    {
      "type": "Feature",
      "geometry": {
        "type": "Point",
        "coordinates": [
          104.909,
          10.496
        ]
      },
      "properties": {
        "id": "FD014",
        "name": "Quán Bò 7 Món Ba Chúc",
        "category": "Ẩm thực",
        "commune": "Thị trấn Ba Chúc",
        "rating": 4.6,
        "review_count": 670
      }
    },
    {
      "type": "Feature",
      "geometry": {
        "type": "Point",
        "coordinates": [
          104.908,
          10.495
        ]
      },
      "properties": {
        "id": "FD015",
        "name": "Quán Cháo Bò Trái Trúc Ba Chúc",
        "category": "Cháo bò",
        "commune": "Thị trấn Ba Chúc",
        "rating": 4.6,
        "review_count": 520
      }
    },
    {
      "type": "Feature",
      "geometry": {
        "type": "Point",
        "coordinates": [
          105.0055,
          10.4115
        ]
      },
      "properties": {
        "id": "FD016",
        "name": "Quán Bánh Xèo Tép Bông Điên Điển Cầu Số 10",
        "category": "Bánh xèo miền Tây",
        "commune": "Thị trấn Tri Tôn",
        "rating": 4.7,
        "review_count": 740
      }
    },
    {
      "type": "Feature",
      "geometry": {
        "type": "Point",
        "coordinates": [
          105.0066,
          10.4126
        ]
      },
      "properties": {
        "id": "FD017",
        "name": "Quán Bò Nướng Trái Trúc Tri Tôn",
        "category": "Bò nướng Bảy Núi",
        "commune": "Thị trấn Tri Tôn",
        "rating": 4.7,
        "review_count": 810
      }
    },
    {
      "type": "Feature",
      "geometry": {
        "type": "Point",
        "coordinates": [
          104.9921,
          10.3775
        ]
      },
      "properties": {
        "id": "FD018",
        "name": "Nhà hàng Gà Đốt Ô Thum Siêu Bó",
        "category": "Ẩm thực",
        "commune": "Xã Ô Lâm",
        "rating": 4.6,
        "review_count": 1420
      }
    },
    {
      "type": "Feature",
      "geometry": {
        "type": "Point",
        "coordinates": [
          105.0065,
          10.4128
        ]
      },
      "properties": {
        "id": "FD019",
        "name": "Quán Bún Nước Lèo Tri Tôn Chị Tư",
        "category": "Ẩm thực",
        "commune": "Thị trấn Tri Tôn",
        "rating": 4.8,
        "review_count": 650
      }
    },
    {
      "type": "Feature",
      "geometry": {
        "type": "Point",
        "coordinates": [
          104.985,
          10.435
        ]
      },
      "properties": {
        "id": "FD020",
        "name": "Lò Đường Thốt Nốt Nguyên Chất Châu Lăng - Út Huệ",
        "category": "Ẩm thực",
        "commune": "Xã Châu Lăng",
        "rating": 4.9,
        "review_count": 340
      }
    },
    {
      "type": "Feature",
      "geometry": {
        "type": "Point",
        "coordinates": [
          105.006,
          10.412
        ]
      },
      "properties": {
        "id": "FD021",
        "name": "Tiệm Bánh Bò Thốt Nốt Nướng Chợ Tri Tôn",
        "category": "Ẩm thực",
        "commune": "Thị trấn Tri Tôn",
        "rating": 4.8,
        "review_count": 480
      }
    },
    {
      "type": "Feature",
      "geometry": {
        "type": "Point",
        "coordinates": [
          104.984,
          10.436
        ]
      },
      "properties": {
        "id": "FD022",
        "name": "Quán Đu Đủ Đâm & Cánh Gà Nướng Rô",
        "category": "Ẩm thực",
        "commune": "Xã Châu Lăng",
        "rating": 4.7,
        "review_count": 590
      }
    },
    {
      "type": "Feature",
      "geometry": {
        "type": "Point",
        "coordinates": [
          105.0095,
          10.414
        ]
      },
      "properties": {
        "id": "FD023",
        "name": "Quán Bò Nướng Bánh Tráng Tư Liêm",
        "category": "Ẩm thực",
        "commune": "Thị trấn Tri Tôn",
        "rating": 4.6,
        "review_count": 520
      }
    },
    {
      "type": "Feature",
      "geometry": {
        "type": "Point",
        "coordinates": [
          105.0085,
          10.413
        ]
      },
      "properties": {
        "id": "FD024",
        "name": "Tiệm Bánh Kẹp Thốt Nốt & Bánh Cốt Dừa Chùa Cũ",
        "category": "Ẩm thực",
        "commune": "Thị trấn Tri Tôn",
        "rating": 4.8,
        "review_count": 410
      }
    },
    {
      "type": "Feature",
      "geometry": {
        "type": "Point",
        "coordinates": [
          105.0135,
          10.4208
        ]
      },
      "properties": {
        "id": "HG001",
        "name": "Chùa Tà Pạ (Chùa Núi)",
        "category": "Chùa Khmer",
        "commune": "Xã Núi Tô",
        "rating": 4.7,
        "review_count": 1870
      }
    },
    {
      "type": "Feature",
      "geometry": {
        "type": "Point",
        "coordinates": [
          105.0088,
          10.4132
        ]
      },
      "properties": {
        "id": "HG002",
        "name": "Chùa Xà Tón (Wat Xvayton)",
        "category": "Chùa Khmer cổ",
        "commune": "Thị trấn Tri Tôn",
        "rating": 4.8,
        "review_count": 2140
      }
    },
    {
      "type": "Feature",
      "geometry": {
        "type": "Point",
        "coordinates": [
          105.001,
          10.435
        ]
      },
      "properties": {
        "id": "HG003",
        "name": "Chùa Hàng Còng (Krăng Krốch)",
        "category": "Chùa Khmer cổ",
        "commune": "Xã Châu Lăng",
        "rating": 4.6,
        "review_count": 780
      }
    },
    {
      "type": "Feature",
      "geometry": {
        "type": "Point",
        "coordinates": [
          105.002,
          10.441
        ]
      },
      "properties": {
        "id": "HG004",
        "name": "Chùa Cổng Trời Koh Kas",
        "category": "Chùa Khmer",
        "commune": "Xã Châu Lăng",
        "rating": 4.6,
        "review_count": 1320
      }
    },
    {
      "type": "Feature",
      "geometry": {
        "type": "Point",
        "coordinates": [
          104.908,
          10.495
        ]
      },
      "properties": {
        "id": "HG005",
        "name": "Khu Di Tích Nhà Mồ Ba Chúc",
        "category": "Di tích Quốc gia",
        "commune": "Thị trấn Ba Chúc",
        "rating": 4.7,
        "review_count": 1340
      }
    },
    {
      "type": "Feature",
      "geometry": {
        "type": "Point",
        "coordinates": [
          104.9075,
          10.4945
        ]
      },
      "properties": {
        "id": "HG006",
        "name": "Chùa Phi Lai Ba Chúc",
        "category": "Chùa tâm linh",
        "commune": "Thị trấn Ba Chúc",
        "rating": 4.6,
        "review_count": 520
      }
    },
    {
      "type": "Feature",
      "geometry": {
        "type": "Point",
        "coordinates": [
          104.9085,
          10.4955
        ]
      },
      "properties": {
        "id": "HG007",
        "name": "Chùa Tam Bửu Ba Chúc",
        "category": "Chùa tâm linh",
        "commune": "Thị trấn Ba Chúc",
        "rating": 4.6,
        "review_count": 480
      }
    },
    {
      "type": "Feature",
      "geometry": {
        "type": "Point",
        "coordinates": [
          104.952,
          10.456
        ]
      },
      "properties": {
        "id": "HG008",
        "name": "Khu Di Tích Căn Cứ Ô Tà Sóc",
        "category": "Di tích lịch sử",
        "commune": "Xã Lương Phi",
        "rating": 4.6,
        "review_count": 520
      }
    },
    {
      "type": "Feature",
      "geometry": {
        "type": "Point",
        "coordinates": [
          105.024,
          10.406
        ]
      },
      "properties": {
        "id": "HG009",
        "name": "Chùa Soài So Khmer",
        "category": "Chùa Khmer",
        "commune": "Thị trấn Tri Tôn",
        "rating": 4.5,
        "review_count": 310
      }
    },
    {
      "type": "Feature",
      "geometry": {
        "type": "Point",
        "coordinates": [
          104.993,
          10.379
        ]
      },
      "properties": {
        "id": "HG010",
        "name": "Chùa Mới Ô Lâm",
        "category": "Chùa Khmer",
        "commune": "Xã Ô Lâm",
        "rating": 4.5,
        "review_count": 270
      }
    },
    {
      "type": "Feature",
      "geometry": {
        "type": "Point",
        "coordinates": [
          105.0118,
          10.4216
        ]
      },
      "properties": {
        "id": "PL001",
        "name": "Hồ Tà Pạ (Tuyệt Tình Cốc)",
        "category": "Hồ nước",
        "commune": "Xã Núi Tô",
        "rating": 4.7,
        "review_count": 4700
      }
    },
    {
      "type": "Feature",
      "geometry": {
        "type": "Point",
        "coordinates": [
          105.025,
          10.405
        ]
      },
      "properties": {
        "id": "PL002",
        "name": "Hồ Soài So",
        "category": "Hồ nước",
        "commune": "Thị trấn Tri Tôn",
        "rating": 4.6,
        "review_count": 2010
      }
    },
    {
      "type": "Feature",
      "geometry": {
        "type": "Point",
        "coordinates": [
          105.019,
          10.416
        ]
      },
      "properties": {
        "id": "PL003",
        "name": "Hồ Soài Chék",
        "category": "Hồ nước",
        "commune": "Xã Núi Tô",
        "rating": 4.5,
        "review_count": 320
      }
    },
    {
      "type": "Feature",
      "geometry": {
        "type": "Point",
        "coordinates": [
          104.992,
          10.378
        ]
      },
      "properties": {
        "id": "PL004",
        "name": "Hồ Ô Thum",
        "category": "Hồ nước",
        "commune": "Xã Ô Lâm",
        "rating": 4.6,
        "review_count": 1890
      }
    },
    {
      "type": "Feature",
      "geometry": {
        "type": "Point",
        "coordinates": [
          104.952,
          10.456
        ]
      },
      "properties": {
        "id": "PL005",
        "name": "Hồ Ô Tà Sóc",
        "category": "Hồ nước",
        "commune": "Xã Lương Phi",
        "rating": 4.5,
        "review_count": 520
      }
    },
    {
      "type": "Feature",
      "geometry": {
        "type": "Point",
        "coordinates": [
          104.962,
          10.478
        ]
      },
      "properties": {
        "id": "PL006",
        "name": "Hồ Ô Tà Lọt",
        "category": "Hồ nước",
        "commune": "Xã An Hảo",
        "rating": 4.5,
        "review_count": 290
      }
    },
    {
      "type": "Feature",
      "geometry": {
        "type": "Point",
        "coordinates": [
          105.002,
          10.482
        ]
      },
      "properties": {
        "id": "PL007",
        "name": "Hồ Đá Latina",
        "category": "Hồ nước",
        "commune": "Xã An Hảo",
        "rating": 4.5,
        "review_count": 940
      }
    },
    {
      "type": "Feature",
      "geometry": {
        "type": "Point",
        "coordinates": [
          105.015,
          10.4
        ]
      },
      "properties": {
        "id": "PL008",
        "name": "Núi Cô Tô (Phụng Hoàng Sơn)",
        "category": "Núi",
        "commune": "Xã Núi Tô",
        "rating": 4.7,
        "review_count": 3220
      }
    },
    {
      "type": "Feature",
      "geometry": {
        "type": "Point",
        "coordinates": [
          105.016,
          10.401
        ]
      },
      "properties": {
        "id": "PL009",
        "name": "Đá Vồ Hội Mẹ Cô Tô",
        "category": "Săn mây",
        "commune": "Xã Núi Tô",
        "rating": 4.8,
        "review_count": 890
      }
    },
    {
      "type": "Feature",
      "geometry": {
        "type": "Point",
        "coordinates": [
          104.9667,
          10.3702
        ]
      },
      "properties": {
        "id": "PL010",
        "name": "Khu Du Lịch Đồi Tức Dụp",
        "category": "Di tích lịch sử",
        "commune": "Xã An Tức",
        "rating": 4.6,
        "review_count": 5200
      }
    },
    {
      "type": "Feature",
      "geometry": {
        "type": "Point",
        "coordinates": [
          105.009,
          10.418
        ]
      },
      "properties": {
        "id": "PL011",
        "name": "Cánh Đồng Lúa Tà Pạ",
        "category": "Cánh đồng",
        "commune": "Xã Núi Tô",
        "rating": 4.8,
        "review_count": 1500
      }
    },
    {
      "type": "Feature",
      "geometry": {
        "type": "Point",
        "coordinates": [
          104.953,
          10.457
        ]
      },
      "properties": {
        "id": "PL012",
        "name": "Rừng Tầm Vông Ô Tà Sóc",
        "category": "Rừng sinh thái",
        "commune": "Xã Lương Phi",
        "rating": 4.6,
        "review_count": 410
      }
    },
    {
      "type": "Feature",
      "geometry": {
        "type": "Point",
        "coordinates": [
          104.905,
          10.493
        ]
      },
      "properties": {
        "id": "PL013",
        "name": "Cánh Đồng Lúa Ba Chúc",
        "category": "Cánh đồng",
        "commune": "Thị trấn Ba Chúc",
        "rating": 4.6,
        "review_count": 350
      }
    },
    {
      "type": "Feature",
      "geometry": {
        "type": "Point",
        "coordinates": [
          104.9912,
          10.3782
        ]
      },
      "properties": {
        "id": "PL014",
        "name": "Vườn Nho Nông Trại Ô Thum",
        "category": "Nông trại",
        "commune": "Xã Ô Lâm",
        "rating": 4.5,
        "review_count": 520
      }
    },
    {
      "type": "Feature",
      "geometry": {
        "type": "Point",
        "coordinates": [
          105.021,
          10.408
        ]
      },
      "properties": {
        "id": "PL015",
        "name": "Vườn Mãng Cầu Núi Tô",
        "category": "Nông trại",
        "commune": "Xã Núi Tô",
        "rating": 4.5,
        "review_count": 280
      }
    },
    {
      "type": "Feature",
      "geometry": {
        "type": "Point",
        "coordinates": [
          105.0255,
          10.4055
        ]
      },
      "properties": {
        "id": "PL016",
        "name": "Suối Vàng Soài So",
        "category": "Suối sinh thái",
        "commune": "Thị trấn Tri Tôn",
        "rating": 4.5,
        "review_count": 430
      }
    },
    {
      "type": "Feature",
      "geometry": {
        "type": "Point",
        "coordinates": [
          104.94,
          10.45
        ]
      },
      "properties": {
        "id": "PL017",
        "name": "Núi Dài (Ngọa Long Sơn)",
        "category": "Núi",
        "commune": "Xã Lương Phi",
        "rating": 4.6,
        "review_count": 390
      }
    },
    {
      "type": "Feature",
      "geometry": {
        "type": "Point",
        "coordinates": [
          105.003,
          10.437
        ]
      },
      "properties": {
        "id": "PL018",
        "name": "Cánh Đồng Thốt Nốt Châu Lăng",
        "category": "Cánh đồng",
        "commune": "Xã Châu Lăng",
        "rating": 4.6,
        "review_count": 610
      }
    },
    {
      "type": "Feature",
      "geometry": {
        "type": "Point",
        "coordinates": [
          105.0025,
          10.4825
        ]
      },
      "properties": {
        "id": "PL019",
        "name": "Vách Đá Đứng Latina",
        "category": "Check-in thiên nhiên",
        "commune": "Xã An Hảo",
        "rating": 4.6,
        "review_count": 480
      }
    },
    {
      "type": "Feature",
      "geometry": {
        "type": "Point",
        "coordinates": [
          105.0082,
          10.4122
        ]
      },
      "properties": {
        "id": "PL020",
        "name": "Bãi Thả Diều Hoàng Hôn Tri Tôn",
        "category": "Tọa độ chill hoàng hôn",
        "commune": "Thị trấn Tri Tôn",
        "rating": 4.8,
        "review_count": 1150
      }
    },
    {
      "type": "Feature",
      "geometry": {
        "type": "Point",
        "coordinates": [
          105.0068,
          10.4125
        ]
      },
      "properties": {
        "id": "PL021",
        "name": "Chợ Trung Tâm Tri Tôn",
        "category": "Chợ",
        "commune": "Thị trấn Tri Tôn",
        "rating": 4.5,
        "review_count": 1120
      }
    },
    {
      "type": "Feature",
      "geometry": {
        "type": "Point",
        "coordinates": [
          105.0075,
          10.4138
        ]
      },
      "properties": {
        "id": "PL022",
        "name": "Khu Ẩm Thực Chợ Đêm Tri Tôn",
        "category": "Chợ",
        "commune": "Thị trấn Tri Tôn",
        "rating": 4.6,
        "review_count": 780
      }
    }
  ]
}